{
  "type": "FeatureCollection",
  "features": [
    {
      "type": "Feature",
      "properties": {
        "norad_id": 67103,
        "name": "STARLINK-36256",
        "group": "last-30-days",
        "lat": 20.920707419750677,
        "lon": 33.52187069537117,
        "alt_km": 321.344513526582,
        "timestamp": "2025-12-25T14:48:23.573058+00:00",
        "meta_object_name": "STARLINK-36256",
        "meta_object_id": "2025-299B",
        "meta_epoch": "2025-12-25T06:00:04.000320",
        "meta_mean_motion": 15.83808858,
        "meta_eccentricity": 0.00015741,
        "meta_inclination": 42.9967,
        "meta_ra_of_asc_node": 239.9981,
        "meta_arg_of_pericenter": 271.4901,
        "meta_mean_anomaly": 303.3392,
        "meta_ephemeris_type": 0,
        "meta_classification_type": "U",
        "meta_norad_cat_id": 67103,
        "meta_element_set_no": 999,
        "meta_rev_at_epoch": 282,
        "meta_bstar": -0.008928518,
        "meta_mean_motion_dot": -0.01802337,
        "meta_mean_motion_ddot": 0,
        "tle_line1": "1 67103U 25299B   25359.25004630 -.01802337  00000+0 -89285-2 0  9997",
        "tle_line2": "2 67103  42.9967 239.9981 0001574 271.4901 303.3392 15.83808858  2827"
      },
      "geometry": {
        "type": "Point",
        "coordinates": [
          33.52187069537117,
          20.920707419750677
        ]
      }
    },
    {
      "type": "Feature",
      "properties": {
        "norad_id": 67104,
        "name": "STARLINK-36258",
        "group": "last-30-days",
        "lat": 19.98542570645455,
        "lon": 34.76578886774048,
        "alt_km": 321.3916353356526,
        "timestamp": "2025-12-25T14:48:23.573067+00:00",
        "meta_object_name": "STARLINK-36258",
        "meta_object_id": "2025-299C",
        "meta_epoch": "2025-12-25T06:00:04.000320",
        "meta_mean_motion": 15.83822197,
        "meta_eccentricity": 0.00016854,
        "meta_inclination": 42.9967,
        "meta_ra_of_asc_node": 239.9942,
        "meta_arg_of_pericenter": 268.0948,
        "meta_mean_anomaly": 308.2149,
        "meta_ephemeris_type": 0,
        "meta_classification_type": "U",
        "meta_norad_cat_id": 67104,
        "meta_element_set_no": 999,
        "meta_rev_at_epoch": 282,
        "meta_bstar": -0.0089205427,
        "meta_mean_motion_dot": -0.01802044,
        "meta_mean_motion_ddot": 0,
        "tle_line1": "1 67104U 25299C   25359.25004630 -.01802044  00000+0 -89205-2 0  9995",
        "tle_line2": "2 67104  42.9967 239.9942 0001685 268.0948 308.2149 15.83822197  2827"
      },
      "geometry": {
        "type": "Point",
        "coordinates": [
          34.76578886774048,
          19.98542570645455
        ]
      }
    },
    {
      "type": "Feature",
      "properties": {
        "norad_id": 67105,
        "name": "STARLINK-36261",
        "group": "last-30-days",
        "lat": 19.184889807654812,
        "lon": 35.809913569353974,
        "alt_km": 321.3723980746681,
        "timestamp": "2025-12-25T14:48:23.573080+00:00",
        "meta_object_name": "STARLINK-36261",
        "meta_object_id": "2025-299D",
        "meta_epoch": "2025-12-25T06:00:04.000320",
        "meta_mean_motion": 15.83843778,
        "meta_eccentricity": 0.00016254,
        "meta_inclination": 42.9966,
        "meta_ra_of_asc_node": 239.9911,
        "meta_arg_of_pericenter": 266.9498,
        "meta_mean_anomaly": 310.5979,
        "meta_ephemeris_type": 0,
        "meta_classification_type": "U",
        "meta_norad_cat_id": 67105,
        "meta_element_set_no": 999,
        "meta_rev_at_epoch": 282,
        "meta_bstar": -0.0088844674,
        "meta_mean_motion_dot": -0.01797224,
        "meta_mean_motion_ddot": 0,
        "tle_line1": "1 67105U 25299D   25359.25004630 -.01797224  00000+0 -88845-2 0  9998",
        "tle_line2": "2 67105  42.9966 239.9911 0001625 266.9498 310.5979 15.83843778  2829"
      },
      "geometry": {
        "type": "Point",
        "coordinates": [
          35.809913569353974,
          19.184889807654812
        ]
      }
    },
    {
      "type": "Feature",
      "properties": {
        "norad_id": 67106,
        "name": "STARLINK-36259",
        "group": "last-30-days",
        "lat": 17.0734903667328,
        "lon": 38.48276384824672,
        "alt_km": 321.42717795187764,
        "timestamp": "2025-12-25T14:48:23.573088+00:00",
        "meta_object_name": "STARLINK-36259",
        "meta_object_id": "2025-299E",
        "meta_epoch": "2025-12-25T06:00:04.000320",
        "meta_mean_motion": 15.83856125,
        "meta_eccentricity": 0.00015375,
        "meta_inclination": 42.9969,
        "meta_ra_of_asc_node": 239.9829,
        "meta_arg_of_pericenter": 261.1487,
        "meta_mean_anomaly": 319.6869,
        "meta_ephemeris_type": 0,
        "meta_classification_type": "U",
        "meta_norad_cat_id": 67106,
        "meta_element_set_no": 999,
        "meta_rev_at_epoch": 282,
        "meta_bstar": -0.0088530265,
        "meta_mean_motion_dot": -0.01792485,
        "meta_mean_motion_ddot": 0,
        "tle_line1": "1 67106U 25299E   25359.25004630 -.01792485  00000+0 -88530-2 0  9994",
        "tle_line2": "2 67106  42.9969 239.9829 0001537 261.1487 319.6869 15.83856125  2826"
      },
      "geometry": {
        "type": "Point",
        "coordinates": [
          38.48276384824672,
          17.0734903667328
        ]
      }
    },
    {
      "type": "Feature",
      "properties": {
        "norad_id": 67107,
        "name": "STARLINK-36196",
        "group": "last-30-days",
        "lat": 18.182667601696746,
        "lon": 37.09283508502345,
        "alt_km": 321.5136345590363,
        "timestamp": "2025-12-25T14:48:23.573097+00:00",
        "meta_object_name": "STARLINK-36196",
        "meta_object_id": "2025-299F",
        "meta_epoch": "2025-12-25T06:00:04.000320",
        "meta_mean_motion": 15.83859119,
        "meta_eccentricity": 0.00015545,
        "meta_inclination": 42.9968,
        "meta_ra_of_asc_node": 239.9874,
        "meta_arg_of_pericenter": 269.4024,
        "meta_mean_anomaly": 309.7062,
        "meta_ephemeris_type": 0,
        "meta_classification_type": "U",
        "meta_norad_cat_id": 67107,
        "meta_element_set_no": 999,
        "meta_rev_at_epoch": 282,
        "meta_bstar": -0.0089291305,
        "meta_mean_motion_dot": -0.01806274,
        "meta_mean_motion_ddot": 0,
        "tle_line1": "1 67107U 25299F   25359.25004630 -.01806274  00000+0 -89291-2 0  9992",
        "tle_line2": "2 67107  42.9968 239.9874 0001554 269.4024 309.7062 15.83859119  2824"
      },
      "geometry": {
        "type": "Point",
        "coordinates": [
          37.09283508502345,
          18.182667601696746
        ]
      }
    },
    {
      "type": "Feature",
      "properties": {
        "norad_id": 67108,
        "name": "STARLINK-36208",
        "group": "last-30-days",
        "lat": 15.960358356042907,
        "lon": 39.84948501364849,
        "alt_km": 321.49364630670607,
        "timestamp": "2025-12-25T14:48:23.573106+00:00",
        "meta_object_name": "STARLINK-36208",
        "meta_object_id": "2025-299G",
        "meta_epoch": "2025-12-25T06:00:04.000320",
        "meta_mean_motion": 15.83867097,
        "meta_eccentricity": 0.00014353,
        "meta_inclination": 42.9969,
        "meta_ra_of_asc_node": 239.9785,
        "meta_arg_of_pericenter": 259.9827,
        "meta_mean_anomaly": 322.5606,
        "meta_ephemeris_type": 0,
        "meta_classification_type": "U",
        "meta_norad_cat_id": 67108,
        "meta_element_set_no": 999,
        "meta_rev_at_epoch": 282,
        "meta_bstar": -0.0088648973,
        "meta_mean_motion_dot": -0.01795344,
        "meta_mean_motion_ddot": 0,
        "tle_line1": "1 67108U 25299G   25359.25004630 -.01795344  00000+0 -88649-2 0  9994",
        "tle_line2": "2 67108  42.9969 239.9785 0001435 259.9827 322.5606 15.83867097  2821"
      },
      "geometry": {
        "type": "Point",
        "coordinates": [
          39.84948501364849,
          15.960358356042907
        ]
      }
    },
    {
      "type": "Feature",
      "properties": {
        "norad_id": 67109,
        "name": "STARLINK-35764",
        "group": "last-30-days",
        "lat": 14.755008126067596,
        "lon": 41.301083537726335,
        "alt_km": 321.7889344214909,
        "timestamp": "2025-12-25T14:48:23.573117+00:00",
        "meta_object_name": "STARLINK-35764",
        "meta_object_id": "2025-299H",
        "meta_epoch": "2025-12-25T06:00:04.000320",
        "meta_mean_motion": 15.83872114,
        "meta_eccentricity": 0.00015746,
        "meta_inclination": 42.9971,
        "meta_ra_of_asc_node": 239.9739,
        "meta_arg_of_pericenter": 265.0214,
        "meta_mean_anomaly": 319.3684,
        "meta_ephemeris_type": 0,
        "meta_classification_type": "U",
        "meta_norad_cat_id": 67109,
        "meta_element_set_no": 999,
        "meta_rev_at_epoch": 271,
        "meta_bstar": -0.0088878331,
        "meta_mean_motion_dot": -0.01799938,
        "meta_mean_motion_ddot": 0,
        "tle_line1": "1 67109U 25299H   25359.25004630 -.01799938  00000+0 -88878-2 0  9992",
        "tle_line2": "2 67109  42.9971 239.9739 0001574 265.0214 319.3684 15.83872114  2710"
      },
      "geometry": {
        "type": "Point",
        "coordinates": [
          41.301083537726335,
          14.755008126067596
        ]
      }
    }
  ]
}